[
    {
        "OBJECT_NAME": "GSAT0101 (GALILEO-PFM)",
        "OBJECT_ID": "2011-060A",
        "EPOCH": "2026-07-08T13:14:56.643936",
        "MEAN_MOTION": 1.70475585,
        "ECCENTRICITY": 0.0002415,
        "INCLINATION": 56.9869,
        "RA_OF_ASC_NODE": 341.1826,
        "ARG_OF_PERICENTER": 60.6868,
        "MEAN_ANOMALY": 299.3373,
        "EPHEMERIS_TYPE": 0,
        "CLASSIFICATION_TYPE": "U",
        "NORAD_CAT_ID": 37846,
        "ELEMENT_SET_NO": 999,
        "REV_AT_EPOCH": 9148,
        "BSTAR": 0,
        "MEAN_MOTION_DOT": -7.4e-07,
        "MEAN_MOTION_DDOT": 0
    },
    {
        "OBJECT_NAME": "GSAT0102 (GALILEO-FM2)",
        "OBJECT_ID": "2011-060B",
        "EPOCH": "2026-07-08T11:27:00.571680",
        "MEAN_MOTION": 1.70475862,
        "ECCENTRICITY": 0.00024239,
        "INCLINATION": 56.9877,
        "RA_OF_ASC_NODE": 341.1851,
        "ARG_OF_PERICENTER": 11.7755,
        "MEAN_ANOMALY": 347.8886,
        "EPHEMERIS_TYPE": 0,
        "CLASSIFICATION_TYPE": "U",
        "NORAD_CAT_ID": 37847,
        "ELEMENT_SET_NO": 999,
        "REV_AT_EPOCH": 9148,
        "BSTAR": 0,
        "MEAN_MOTION_DOT": -7.4e-07,
        "MEAN_MOTION_DDOT": 0
    },
    {
        "OBJECT_NAME": "GSAT0103 (GALILEO-FM3)",
        "OBJECT_ID": "2012-055A",
        "EPOCH": "2026-07-09T18:23:01.882464",
        "MEAN_MOTION": 1.70473301,
        "ECCENTRICITY": 0.00039458,
        "INCLINATION": 55.8193,
        "RA_OF_ASC_NODE": 100.9259,
        "ARG_OF_PERICENTER": 309.3641,
        "MEAN_ANOMALY": 50.6099,
        "EPHEMERIS_TYPE": 0,
        "CLASSIFICATION_TYPE": "U",
        "NORAD_CAT_ID": 38857,
        "ELEMENT_SET_NO": 999,
        "REV_AT_EPOCH": 8539,
        "BSTAR": 0,
        "MEAN_MOTION_DOT": -1.9e-07,
        "MEAN_MOTION_DDOT": 0
    },
    {
        "OBJECT_NAME": "GSAT0201 (GALILEO 5)",
        "OBJECT_ID": "2014-050A",
        "EPOCH": "2026-07-10T01:18:12.802176",
        "MEAN_MOTION": 1.85519753,
        "ECCENTRICITY": 0.16778151,
        "INCLINATION": 48.85,
        "RA_OF_ASC_NODE": 272.4979,
        "ARG_OF_PERICENTER": 180.2883,
        "MEAN_ANOMALY": 179.6634,
        "EPHEMERIS_TYPE": 0,
        "CLASSIFICATION_TYPE": "U",
        "NORAD_CAT_ID": 40128,
        "ELEMENT_SET_NO": 999,
        "REV_AT_EPOCH": 7874,
        "BSTAR": 0,
        "MEAN_MOTION_DOT": -2.2e-07,
        "MEAN_MOTION_DDOT": 0
    },
    {
        "OBJECT_NAME": "GSAT0202 (GALILEO 6)",
        "OBJECT_ID": "2014-050B",
        "EPOCH": "2026-07-10T07:26:04.375968",
        "MEAN_MOTION": 1.85520571,
        "ECCENTRICITY": 0.16790215,
        "INCLINATION": 48.8671,
        "RA_OF_ASC_NODE": 271.573,
        "ARG_OF_PERICENTER": 181.0029,
        "MEAN_ANOMALY": 178.6755,
        "EPHEMERIS_TYPE": 0,
        "CLASSIFICATION_TYPE": "U",
        "NORAD_CAT_ID": 40129,
        "ELEMENT_SET_NO": 999,
        "REV_AT_EPOCH": 8091,
        "BSTAR": 0,
        "MEAN_MOTION_DOT": -1.8e-07,
        "MEAN_MOTION_DDOT": 0
    },
    {
        "OBJECT_NAME": "GSAT0203 (GALILEO 7)",
        "OBJECT_ID": "2015-017A",
        "EPOCH": "2026-07-08T21:59:34.491552",
        "MEAN_MOTION": 1.70476163,
        "ECCENTRICITY": 0.00024684,
        "INCLINATION": 56.7793,
        "RA_OF_ASC_NODE": 341.0043,
        "ARG_OF_PERICENTER": 258.6385,
        "MEAN_ANOMALY": 101.3331,
        "EPHEMERIS_TYPE": 0,
        "CLASSIFICATION_TYPE": "U",
        "NORAD_CAT_ID": 40544,
        "ELEMENT_SET_NO": 999,
        "REV_AT_EPOCH": 6957,
        "BSTAR": 0,
        "MEAN_MOTION_DOT": -7.6e-07,
        "MEAN_MOTION_DDOT": 0
    },
    {
        "OBJECT_NAME": "GSAT0204 (GALILEO 8)",
        "OBJECT_ID": "2015-017B",
        "EPOCH": "2026-07-07T09:53:57.571296",
        "MEAN_MOTION": 1.70475727,
        "ECCENTRICITY": 0.00025512,
        "INCLINATION": 56.7861,
        "RA_OF_ASC_NODE": 341.0638,
        "ARG_OF_PERICENTER": 235.3414,
        "MEAN_ANOMALY": 124.6352,
        "EPHEMERIS_TYPE": 0,
        "CLASSIFICATION_TYPE": "U",
        "NORAD_CAT_ID": 40545,
        "ELEMENT_SET_NO": 999,
        "REV_AT_EPOCH": 3258,
        "BSTAR": 0,
        "MEAN_MOTION_DOT": -7.2e-07,
        "MEAN_MOTION_DDOT": 0
    },
    {
        "OBJECT_NAME": "GSAT0206 (GALILEO 10)",
        "OBJECT_ID": "2015-045B",
        "EPOCH": "2026-07-07T23:42:16.285536",
        "MEAN_MOTION": 1.70473579,
        "ECCENTRICITY": 0.00019272,
        "INCLINATION": 54.9404,
        "RA_OF_ASC_NODE": 221.0297,
        "ARG_OF_PERICENTER": 331.1596,
        "MEAN_ANOMALY": 28.9023,
        "EPHEMERIS_TYPE": 0,
        "CLASSIFICATION_TYPE": "U",
        "NORAD_CAT_ID": 40890,
        "ELEMENT_SET_NO": 999,
        "REV_AT_EPOCH": 6739,
        "BSTAR": 0,
        "MEAN_MOTION_DOT": 8.2e-07,
        "MEAN_MOTION_DDOT": 0
    },
    {
        "OBJECT_NAME": "GSAT0209 (GALILEO 12)",
        "OBJECT_ID": "2015-079A",
        "EPOCH": "2026-07-08T03:44:33.897696",
        "MEAN_MOTION": 1.70473596,
        "ECCENTRICITY": 0.00049977,
        "INCLINATION": 55.839,
        "RA_OF_ASC_NODE": 100.6867,
        "ARG_OF_PERICENTER": 350.6288,
        "MEAN_ANOMALY": 9.3765,
        "EPHEMERIS_TYPE": 0,
        "CLASSIFICATION_TYPE": "U",
        "NORAD_CAT_ID": 41174,
        "ELEMENT_SET_NO": 999,
        "REV_AT_EPOCH": 6513,
        "BSTAR": 0,
        "MEAN_MOTION_DOT": -8e-08,
        "MEAN_MOTION_DDOT": 0
    },
    {
        "OBJECT_NAME": "GSAT0208 (GALILEO 11)",
        "OBJECT_ID": "2015-079B",
        "EPOCH": "2026-07-08T09:01:55.815744",
        "MEAN_MOTION": 1.70473357,
        "ECCENTRICITY": 0.00044233,
        "INCLINATION": 55.8379,
        "RA_OF_ASC_NODE": 100.6775,
        "ARG_OF_PERICENTER": 15.9812,
        "MEAN_ANOMALY": 344.0466,
        "EPHEMERIS_TYPE": 0,
        "CLASSIFICATION_TYPE": "U",
        "NORAD_CAT_ID": 41175,
        "ELEMENT_SET_NO": 999,
        "REV_AT_EPOCH": 6555,
        "BSTAR": 0,
        "MEAN_MOTION_DOT": -9e-08,
        "MEAN_MOTION_DDOT": 0
    },
    {
        "OBJECT_NAME": "GSAT0211 (GALILEO 14)",
        "OBJECT_ID": "2016-030A",
        "EPOCH": "2026-07-06T17:45:56.222784",
        "MEAN_MOTION": 1.70473798,
        "ECCENTRICITY": 0.00031513,
        "INCLINATION": 55.0912,
        "RA_OF_ASC_NODE": 221.1568,
        "ARG_OF_PERICENTER": 320.2571,
        "MEAN_ANOMALY": 39.7906,
        "EPHEMERIS_TYPE": 0,
        "CLASSIFICATION_TYPE": "U",
        "NORAD_CAT_ID": 41549,
        "ELEMENT_SET_NO": 999,
        "REV_AT_EPOCH": 6300,
        "BSTAR": 0,
        "MEAN_MOTION_DOT": 7.8e-07,
        "MEAN_MOTION_DDOT": 0
    },
    {
        "OBJECT_NAME": "GSAT0210 (GALILEO 13)",
        "OBJECT_ID": "2016-030B",
        "EPOCH": "2026-07-09T22:19:47.714304",
        "MEAN_MOTION": 1.70474002,
        "ECCENTRICITY": 0.00046831,
        "INCLINATION": 55.0899,
        "RA_OF_ASC_NODE": 221.067,
        "ARG_OF_PERICENTER": 245.4873,
        "MEAN_ANOMALY": 114.5425,
        "EPHEMERIS_TYPE": 0,
        "CLASSIFICATION_TYPE": "U",
        "NORAD_CAT_ID": 41550,
        "ELEMENT_SET_NO": 999,
        "REV_AT_EPOCH": 6305,
        "BSTAR": 0,
        "MEAN_MOTION_DOT": 8.9e-07,
        "MEAN_MOTION_DDOT": 0
    },
    {
        "OBJECT_NAME": "GSAT0207 (GALILEO 15)",
        "OBJECT_ID": "2016-069A",
        "EPOCH": "2026-07-09T00:51:31.567392",
        "MEAN_MOTION": 1.70473324,
        "ECCENTRICITY": 0.0004251,
        "INCLINATION": 55.5102,
        "RA_OF_ASC_NODE": 100.4816,
        "ARG_OF_PERICENTER": 344.5564,
        "MEAN_ANOMALY": 15.4422,
        "EPHEMERIS_TYPE": 0,
        "CLASSIFICATION_TYPE": "U",
        "NORAD_CAT_ID": 41859,
        "ELEMENT_SET_NO": 999,
        "REV_AT_EPOCH": 5977,
        "BSTAR": 0,
        "MEAN_MOTION_DOT": -1.4e-07,
        "MEAN_MOTION_DDOT": 0
    }
]